      2.10          N: GNSS NAV DATA                        RINEX VERSION / TYPE
fic2rin                                 07/11/2021 00:17:35 PGM / RUN BY / DATE
                                                            END OF HEADER
 6 21  7 10  4  0  0.0 3.794068470597e-05 5.343281372916e-12 0.000000000000e+00
    9.800000000000e+01-7.546875000000e+01 3.971951161995e-09 1.713808951182e+00
   -3.831461071968e-06 2.179120201617e-03 9.741634130478e-07 5.153535646439e+03
    5.328000000000e+05 5.774199962616e-08 2.084807836089e+00 5.587935447693e-08
    9.841142448799e-01 3.719375000000e+02-9.502599330433e-01-8.090336995010e-09
   -1.085759511956e-10 1.000000000000e+00 2.165000000000e+03 0.000000000000e+00
    2.400000000000e+00 0.000000000000e+00 4.190951585770e-09 9.800000000000e+01
    5.256000000000e+05 4.000000000000e+00
 4 21  7 10  4  0  0.0-2.020238898695e-04-7.958078640513e-13 0.000000000000e+00
    1.270000000000e+02 1.353125000000e+01 4.832344143673e-09-3.105528314337e+00
    8.288770914078e-07 1.284755999222e-03 7.610768079758e-06 5.153715673447e+03
    5.328000000000e+05-2.235174179077e-08-2.072737392644e+00 1.117587089539e-08
    9.603443774209e-01 2.362500000000e+02-2.946085924716e+00-7.916044020722e-09
    6.314548740587e-10 1.000000000000e+00 2.165000000000e+03 0.000000000000e+00
    2.400000000000e+00 0.000000000000e+00-4.190951585770e-09 6.390000000000e+02
    5.256000000000e+05 4.000000000000e+00
 9 21  7 10  4  0  0.0-3.548557870090e-04-1.477928890381e-12 0.000000000000e+00
    3.700000000000e+01 1.128125000000e+01 4.963778189857e-09-2.096859232341e+00
    7.394701242447e-07 1.911077415571e-03 7.698312401772e-06 5.153744844437e+03
    5.328000000000e+05 1.490116119385e-08-2.123931485220e+00 5.774199962616e-08
    9.532735340462e-01 2.285937500000e+02 1.821028473031e+00-7.980332412877e-09
    6.696707516177e-10 1.000000000000e+00 2.165000000000e+03 0.000000000000e+00
    2.400000000000e+00 0.000000000000e+00 1.396983861923e-09 3.700000000000e+01
    5.256000000000e+05 4.000000000000e+00
15 21  7 10  4  0  0.0-1.366063952446e-04 2.614797267597e-12 0.000000000000e+00
    2.500000000000e+01 2.593750000000e+00 5.289148885710e-09 2.856863351277e+00
    1.303851604462e-08 1.331035117619e-02 8.560717105865e-06 5.153640993118e+03
    5.328000000000e+05 3.911554813385e-08-2.224171054795e+00-2.123415470123e-07
    9.290622222793e-01 1.984687500000e+02 9.967351434367e-01-7.942830850787e-09
    6.396695019452e-10 1.000000000000e+00 2.165000000000e+03 0.000000000000e+00
    2.400000000000e+00 0.000000000000e+00-1.071020960808e-08 2.500000000000e+01
    5.256000000000e+05 4.000000000000e+00
10 21  7 10  4  0  0.0-1.589753665030e-04-7.617018127348e-12 0.000000000000e+00
    9.100000000000e+01-1.010000000000e+02 4.005166831275e-09-4.697417517723e-01
   -5.163252353668e-06 6.712942849845e-03 9.693205356598e-06 5.153683004379e+03
    5.328000000000e+05 2.980232238770e-08 3.127271311723e+00 9.313225746155e-08
    9.701875441826e-01 1.984687500000e+02-2.572448615850e+00-7.787110078677e-09
    2.164375869228e-10 1.000000000000e+00 2.165000000000e+03 0.000000000000e+00
    2.400000000000e+00 0.000000000000e+00 2.328306436539e-09 9.100000000000e+01
    5.256000000000e+05 4.000000000000e+00
11 21  7 10  4  0  0.0 1.175329089165e-05 1.000444171950e-11 0.000000000000e+00
    1.430000000000e+02-8.312500000000e+01 4.502687555010e-09-1.341433125354e+00
   -4.148110747337e-06 4.998638760298e-04 9.723007678986e-07 5.153666080475e+03
    5.328000000000e+05 1.303851604462e-08 2.142016757310e+00 3.166496753693e-08
    9.596789062271e-01 3.592500000000e+02 1.622539834348e+00-8.374277393696e-09
   -1.003613233091e-10 1.000000000000e+00 2.165000000000e+03 0.000000000000e+00
    2.400000000000e+00 6.300000000000e+01-5.587935447693e-09 1.430000000000e+02
    5.256000000000e+05 4.000000000000e+00
32 21  7 10  4  0  0.0 1.486018300056e-05-1.932676241267e-12 0.000000000000e+00
    2.300000000000e+01 1.543750000000e+01 4.828772566331e-09-1.824348376896e+00
    8.288770914078e-07 5.035340669565e-03 7.761642336845e-06 5.153687593460e+03
    5.328000000000e+05 5.960464477539e-08-2.113704837891e+00 1.117587089539e-08
    9.572177030909e-01 2.264375000000e+02-2.358589761074e+00-7.952831267344e-09
    6.753852753648e-10 1.000000000000e+00 2.165000000000e+03 0.000000000000e+00
    2.400000000000e+00 0.000000000000e+00 4.656612873077e-10 2.300000000000e+01
    5.256000000000e+05 4.000000000000e+00
31 21  7 10  4  0  0.0-1.277718693018e-04-2.160049916711e-12 0.000000000000e+00
    8.200000000000e+01-1.500000000000e+01 5.098426655649e-09 4.050069830808e-01
   -7.115304470062e-07 1.003494462930e-02 5.697831511497e-06 5.153557579041e+03
    5.328000000000e+05 5.960464477539e-08-1.033887301259e+00 7.636845111847e-08
    9.554392482112e-01 2.636250000000e+02 2.686168147514e-01-8.272487439450e-09
   -5.050210361533e-10 1.000000000000e+00 2.165000000000e+03 0.000000000000e+00
    2.400000000000e+00 0.000000000000e+00-1.303851604462e-08 8.200000000000e+01
    5.256000000000e+05 4.000000000000e+00
29 21  7 10  4  0  0.0-3.777132369578e-04-6.139089236967e-12 0.000000000000e+00
    1.030000000000e+02 1.157812500000e+02 3.948735909272e-09-2.446334664367e+00
    5.953013896942e-06 1.969243981875e-03 3.557652235031e-06 5.153613691330e+03
    5.328000000000e+05 7.450580596924e-09 1.108131603615e+00 4.284083843231e-08
    9.836385244013e-01 3.233750000000e+02 2.223912257272e+00-7.932116118761e-09
    1.646497154644e-10 1.000000000000e+00 2.165000000000e+03 0.000000000000e+00
    3.400000000000e+00 0.000000000000e+00-9.778887033463e-09 1.030000000000e+02
    5.256000000000e+05 4.000000000000e+00
16 21  7 10  4  0  0.0-3.546359948814e-04-6.139089236967e-12 0.000000000000e+00
    9.300000000000e+01 8.356250000000e+01 3.860160791191e-09-1.634061357283e+00
    4.300847649574e-06 1.217083772644e-02 1.036189496517e-05 5.153727466583e+03
    5.328000000000e+05 1.937150955200e-07 7.826686479193e-02-1.434236764908e-07
    9.735189831561e-01 1.878437500000e+02 6.805023889017e-01-7.419594770189e-09
   -3.192990143713e-10 1.000000000000e+00 2.165000000000e+03 0.000000000000e+00
    2.400000000000e+00 0.000000000000e+00-1.024454832077e-08 9.300000000000e+01
    5.256000000000e+05 4.000000000000e+00
13 21  7 10  4  0  0.0 1.556994393468e-04 5.002220859751e-12 0.000000000000e+00
    4.700000000000e+01 1.031250000000e+01 4.635193074397e-09-3.080270571416e+00
    4.060566425323e-07 5.097418208607e-03 7.273629307747e-06 5.153674549103e+03
    5.328000000000e+05 3.166496753693e-08-1.974570482478e+00-1.285225152969e-07
    9.678821462107e-01 2.440312500000e+02 9.554421199193e-01-7.769252191967e-09
    5.596661694853e-10 1.000000000000e+00 2.165000000000e+03 0.000000000000e+00
    2.400000000000e+00 0.000000000000e+00-1.117587089539e-08 4.700000000000e+01
    5.256000000000e+05 4.000000000000e+00
30 21  7 10  4  0  0.0-4.489803686738e-04-4.433786671143e-12 0.000000000000e+00
    1.200000000000e+02-1.209375000000e+01 5.548802558470e-09 7.756419451718e-01
   -4.991888999939e-07 5.349322455004e-03 5.496665835381e-06 5.153670293808e+03
    5.328000000000e+05 3.166496753693e-08-1.034606932606e+00 1.676380634308e-08
    9.363428115336e-01 2.573437500000e+02-2.745728801711e+00-8.433922735306e-09
   -4.825200988989e-10 1.000000000000e+00 2.165000000000e+03 0.000000000000e+00
    2.400000000000e+00 0.000000000000e+00 3.725290298462e-09 1.200000000000e+02
    5.256000000000e+05 4.000000000000e+00
27 21  7 10  4  0  0.0-1.604799181223e-04-5.911715561524e-12 0.000000000000e+00
    7.900000000000e+01 1.181875000000e+02 4.015167247832e-09-2.580745821988e+00
    6.204470992088e-06 9.429173311219e-03 3.319233655930e-06 5.153688375473e+03
    5.328000000000e+05 2.421438694000e-08 1.034558684105e+00-4.470348358154e-08
    9.755642318689e-01 3.240937500000e+02 6.364622363726e-01-7.847112578022e-09
    2.585821995580e-10 1.000000000000e+00 2.165000000000e+03 0.000000000000e+00
    2.400000000000e+00 0.000000000000e+00 1.862645149231e-09 7.900000000000e+01
    5.256000000000e+05 4.000000000000e+00
25 21  7 10  4  0  0.0 1.707831397653e-04 6.707523425575e-12 0.000000000000e+00
    4.900000000000e+01 5.356250000000e+01 4.375182243902e-09-4.913117912796e-02
    2.885237336159e-06 9.834325173870e-03 1.064687967300e-05 5.153607713699e+03
    5.328000000000e+05-3.539025783539e-08-1.442468240021e-02 1.657754182816e-07
    9.607935898238e-01 1.731562500000e+02 9.725986760216e-01-7.931044645558e-09
   -5.028780897481e-10 1.000000000000e+00 2.165000000000e+03 0.000000000000e+00
    2.400000000000e+00 0.000000000000e+00 5.587935447693e-09 4.900000000000e+01
    5.256000000000e+05 4.000000000000e+00
24 21  7 10  4  0  0.0 1.681949943304e-04 1.489297574153e-11 0.000000000000e+00
    2.700000000000e+01-1.178125000000e+01 5.652735459121e-09 1.895014984352e+00
   -6.929039955139e-07 1.120586949401e-02 5.343928933144e-06 5.153713018417e+03
    5.328000000000e+05-3.427267074585e-07-1.130161242244e+00-4.097819328308e-08
    9.344932295768e-01 2.648125000000e+02 7.432222161542e-01-8.434279893041e-09
   -2.617966191657e-10 1.000000000000e+00 2.165000000000e+03 0.000000000000e+00
    2.400000000000e+00 0.000000000000e+00 2.793967723846e-09 2.700000000000e+01
    5.256000000000e+05 4.000000000000e+00
22 21  7 10  4  0  0.0-5.674604326487e-04 9.549694368616e-12 0.000000000000e+00
    8.500000000000e+01-1.203125000000e+02 4.660194115791e-09 2.702561990795e+00
   -6.422400474548e-06 6.930258008651e-03 9.516254067421e-06 5.153800188065e+03
    5.328000000000e+05 8.195638656616e-08 3.029164730836e+00 8.009374141693e-08
    9.359296937085e-01 1.790312500000e+02-9.234794708782e-01-7.953902740547e-09
    1.125046862718e-10 1.000000000000e+00 2.165000000000e+03 0.000000000000e+00
    2.400000000000e+00 0.000000000000e+00-1.769512891769e-08 8.500000000000e+01
    5.256000000000e+05 4.000000000000e+00
